satname,norad_id,inclination_deg,eccentricity,mean_motion_rev_per_day,perigee_km,apogee_km,l1,l2
STARLINK-1451,45668,53.0527,0.0003089,15.07486017,541.7468580359691,546.023283271219,1 45668U 20035M   26021.44978729  .00010023  00000+0  67094-3 0  9994,2 45668  53.0527 278.9145 0003089 103.5228 256.6105 15.07486017311616
STARLINK-1452,45669,53.0356,0.0004498,15.36741095,452.6799634556528,458.8277316621161,1 45669U 20035N   26021.33374108  .00088714  00000+0  24174-2 0  9997,2 45669  53.0356 245.9670 0004498 154.0362 206.0867 15.36741095312065
STARLINK-1453,45670,53.0506,0.0007821,15.41805338,435.4480827497,446.1142345334465,1 45670U 20035P   26021.29838625  .00118699  00000+0  27246-2 0  9992,2 45670  53.0506 239.8363 0007821 137.8785 222.2821 15.41805338312030
STARLINK-1454,45671,53.0555,0.0001239,15.28088675,480.67645034726047,482.3762749285215,1 45671U 20035Q   26021.58335647  .01069138  00000+0  35234-1 0  9990,2 45671  53.0555 277.2259 0001239 101.5343 181.7263 15.28088675  5793
STARLINK-1456,45673,53.053,0.0007552,15.39724177,441.7699949369562,452.07856749610437,1 45673U 20035S   26021.40656009  .00071549  00000+0  17743-2 0  9995,2 45673  53.0530 271.6218 0007552 116.7101 243.4676 15.39724177311717
STARLINK-1457,45674,53.0529,0.0001388,15.6328946,377.2249582970262,379.10050710282394,1 45674U 20035T   26021.58335647  .00139353  00000+0  14706-2 0  9991,2 45674  53.0529 255.8376 0001388  93.6098 146.5505 15.63289460  5862
STARLINK-1458,45675,53.0535,0.0001316,15.21672668,499.8897058950688,501.70024079045197,1 45675U 20035U   26021.58335647  .00098040  00000+0  42377-2 0  9994,2 45675  53.0535 277.4542 0001316  75.9067  27.8619 15.21672668  5839
STARLINK-1460,45676,53.0528,0.0001354,15.0638029,546.334266534066,548.2096672823045,1 45676U 20035V   26020.93148853 -.00009085  00000+0 -59209-3 0  9990,2 45676  53.0528 281.0126 0001354  79.7004 280.4138 15.06380290311491
STARLINK-1392,45677,53.0539,0.0001674,15.06367125,546.152996695193,548.4716371264949,1 45677U 20035W   26021.40698203 -.00007790  00000+0 -50509-3 0  9998,2 45677  53.0539 278.8796 0001674 103.7049 256.4127 15.06367125311609
STARLINK-1394,45679,53.0527,0.0006453,15.4043932,440.408930015823,449.2146277098236,1 45679U 20035Y   26021.37905280  .00030455  00000+0  74748-3 0  9995,2 45679  53.0527 261.7072 0006453 121.7607 238.4026 15.40439320311845
STARLINK-1402,45685,53.0507,0.0011056,15.36786065,448.06512736275727,463.1759320124038,1 45685U 20035AE  26020.91995285  .00119943  00000+0  32417-2 0  9991,2 45685  53.0507 249.5154 0011056 102.0091 258.2151 15.36786065311989
STARLINK-1404,45686,53.0876,0.0001959,15.14386009,521.4913119159028,524.1951159637247,1 45686U 20035AF  26021.58335647  .01411080  00000+0  69629-1 0  9998,2 45686  53.0876 267.9733 0001959 100.8706  75.3946 15.14386009  5795
STARLINK-1413,45689,53.0912,0.0001805,15.15165728,519.2302703190562,521.7206694206789,1 45689U 20035AJ  26021.58335647  .01530403  00000+0  73327-1 0  9992,2 45689  53.0912 267.9436 0001805  71.5739  19.6433 15.15165728  5795
STARLINK-1417,45693,53.0519,0.0007526,15.09725987,531.8322459644123,542.2409652755914,1 45693U 20035AN  26020.97656614  .00017945  00000+0  11148-2 0  9993,2 45693  53.0519 270.0710 0007526  99.9414 260.2426 15.09725987311689
STARLINK-1420,45695,53.0558,0.0001829,15.26716972,484.3791458009573,486.88991342648933,1 45695U 20035AQ  26021.58335647  .01720466  00000+0  59165-1 0  9993,2 45695  53.0558 247.2872 0001829 102.3822 333.9234 15.26716972  5836
STARLINK-1422,45696,53.0986,0.0002189,15.1698,513.4650866120137,516.482890602826,1 45696U 20035AR  26021.58335647  .00081611  00000+0  40525-2 0  9996,2 45696  53.0986 267.7490 0002189  90.6429  69.4395 15.16980000  5830
STARLINK-1351,45697,53.0548,0.0002447,15.29477004,475.6971117840312,479.05219918822604,1 45697U 20035AS  26021.58335647  .00100804  00000+0  34453-2 0  9996,2 45697  53.0548 246.3175 0002447 130.6574 165.8666 15.29477004  5797
STARLINK-1398,45699,53.0422,0.0003639,15.72121996,350.38396716369425,355.2827673970005,1 45699U 20035AU  26021.58335647  .00080636  00000+0  60007-3 0  9993,2 45699  53.0422 176.4361 0003639 207.1468 133.1570 15.72121996  5950
STARLINK-1400,45700,53.0556,0.0001307,15.27422196,482.62483987994165,484.4184774533169,1 45700U 20035AV  26021.58335647  .01082667  00000+0  36871-1 0  9993,2 45700  53.0556 247.2508 0001307  98.9277 212.8946 15.27422196  5795
STARLINK-1403,45701,53.0536,0.0001696,15.06405955,546.0187707610494,548.3678428011099,1 45701U 20035AW  26020.90475333  .00001368  00000+0  11073-3 0  9993,2 45701  53.0536 251.1326 0001696 140.3458 219.7656 15.06405955311942
STARLINK-1407,45703,53.0375,0.0006711,15.51285443,408.4144152500885,417.52944165385634,1 45703U 20035AY  26021.58335647  .00033071  00000+0  55927-3 0  9995,2 45703  53.0375 183.7715 0006711 295.6440 304.5520 15.51285443  5799
STARLINK-1411,45706,53.046,0.0001295,15.53735838,404.9513599211741,406.70840734403464,1 45706U 20035BB  26021.53519869  .00069525  00000+0  10647-2 0  9995,2 45706  53.0460 210.3532 0001295 199.0709 161.0252 15.53735838312573
STARLINK-1423,45710,53.0588,0.0001321,15.30349662,473.8629732998843,475.6735108648427,1 45710U 20035BF  26021.58335647  .01108900  00000+0  33991-1 0  9993,2 45710  53.0588 246.9857 0001321  97.7442  51.9598 15.30349662  5785
STARLINK-1433,45711,53.0585,0.0001301,15.31773546,469.62975682316574,471.41177757419064,1 45711U 20035BG  26021.58335647  .01141648  00000+0  33882-1 0  9999,2 45711  53.0585 246.7691 0001301  99.6521 261.3577 15.31773546  5837
STARLINK-1434,45712,53.051,0.0004461,15.21256546,498.98009948057825,505.11860174259436,1 45712U 20035BH  26021.28954379  .00014777  00000+0  66614-3 0  9998,2 45712  53.0510 238.7216 0004461  87.4110 272.7396 15.21256546312166
STARLINK-1465,45731,53.0552,9.06e-05,15.24885578,490.50668699363996,491.7513980005406,1 45731U 20038B   26021.58335647  .00100589  00000+0  39516-2 0  9993,2 45731  53.0552  87.1086 0000906  63.1809 303.4462 15.24885578  5835
STARLINK-1471,45735,53.0507,0.0002955,15.45028075,429.28339323333785,433.30776788844923,1 45735U 20038F   26021.23130116  .00042717  00000+0  89473-3 0  9999,2 45735  53.0507   8.7886 0002955  79.2781 280.8558 15.45028075310184
STARLINK-1474,45738,53.0288,0.0005612,15.8891677,301.56797111949163,309.06948182688484,1 45738U 20038J   26021.58335647  .00501432  00000+0  16321-2 0  9991,2 45738  53.0288 304.4778 0005612 141.0663 249.9528 15.88916770  5942
STARLINK-1480,45741,53.0539,0.0006001,15.39751556,442.74770397518387,450.93904542089604,1 45741U 20038M   26021.42037598  .00034161  00000+0  85602-3 0  9991,2 45741  53.0539  82.0974 0006001  16.7035 343.4165 15.39751556309170
STARLINK-1500,45744,53.0379,0.0003651,15.31998919,467.34887841157797,472.3492778458276,1 45744U 20038Q   26021.35889575  .00041488  00000+0  13286-2 0  9994,2 45744  53.0379  54.3052 0003651  80.5067 279.6346 15.31998919309557
STARLINK-1504,45746,53.0256,0.0004228,15.49792501,414.45943268828614,420.2056817458679,1 45746U 20038S   26021.34015942  .00038197  00000+0  67961-3 0  9997,2 45746  53.0256  10.0400 0004228  58.2666 301.8753 15.49792501310164
STARLINK-1506,45747,53.0793,0.0004917,15.24496961,488.91818635301024,495.67457053737235,1 45747U 20038T   26021.48679394  .00031730  00000+0  12819-2 0  9997,2 45747  53.0793  60.4540 0004917  80.4105 279.7447 15.24496961309485
STARLINK-1464,45751,53.056,0.000143,15.23637993,493.8954839189573,495.8611663019383,1 45751U 20038X   26021.50002314  .01043487  00000+0  39376-1 0  9996,2 45751  53.0560  67.6551 0001430  78.1637 196.5861 15.23637993  5664
STARLINK-1477,45754,53.0514,0.0001505,15.11295661,531.2075681798415,533.2875939387404,1 45754U 20038AA  26021.39846306  .00011522  00000+0  69275-3 0  9990,2 45754  53.0514  67.4146 0001505 237.9624 122.1221 15.11295661309377
STARLINK-1478,45755,53.0555,0.0001695,15.44792936,430.8322407409423,433.14087262665817,1 45755U 20038AB  26021.50424918  .00032231  00000+0  68366-3 0  9995,2 45755  53.0555  64.3444 0001695  71.8525 288.2666 15.44792936309410
STARLINK-1484,45756,53.0082,0.0004647,15.79181122,329.6410183444614,335.8781256184602,1 45756U 20038AC  26021.50002314  .00182307  00000+0  98001-3 0  9997,2 45756  53.0082 296.6889 0004647 123.7658  67.8644 15.79181122  5971
STARLINK-1493,45759,53.0537,0.0001137,15.18684182,509.03315568510425,510.599476269158,1 45759U 20038AF  26021.50002314  .00062564  00000+0  29697-2 0  9996,2 45759  53.0537  67.9242 0001137  96.5424 281.1955 15.18684182  5827
STARLINK-1494,45760,53.052,0.0001539,15.65311862,371.3030990657271,373.38089650124493,1 45760U 20038AG  26021.49677432  .00070618  00000+0  69654-3 0  9992,2 45760  53.0520  24.7083 0001539  87.5508 272.5682 15.65311862309983
STARLINK-1502,45764,53.0541,0.0001432,15.15205247,519.3676539165672,521.3433821737344,1 45764U 20038AL  26021.50002314  .00062119  00000+0  32567-2 0  9998,2 45764  53.0541  68.1377 0001432  62.7444  26.0996 15.15205247  5712
STARLINK-1470,45772,53.0445,5.16e-05,15.23842852,493.9077093924607,494.61694100282057,1 45772U 20038AU  26021.44826100  .00014417  00000+0  60287-3 0  9996,2 45772  53.0445  32.8633 0000516 173.4280 186.6724 15.23842852309860
STARLINK-1482,45773,53.0547,0.000115,15.06364868,546.5228070840503,548.1156620179972,1 45773U 20038AV  26021.34708090 -.00010846  00000+0 -71104-3 0  9997,2 45773  53.0547  49.1468 0001150  98.4065 261.7054 15.06364868309625
STARLINK-1496,45780,53.0552,0.0005091,15.39310578,444.67152072859335,451.622042875224,1 45780U 20038BC  26021.44930672  .00062320  00000+0  15705-2 0  9995,2 45780  53.0552  42.3911 0005091  42.5485 317.5912 15.39310578309719
STARLINK-1497,45781,53.0312,0.0008428,15.900955,296.3853438602846,307.6454087057473,1 45781U 20038BD  26021.50002314  .00478989  97867-4  15610-2 0  9995,2 45781  53.0312 317.2453 0008428 107.9317 239.3149 15.90095500  6018
